{"type": "FeatureCollection", "features": [ {"type": "Feature", "properties": {"norad_id": 30480, "name": "FENGYUN 1C DEB", "group": "fengyun-1c-debris", "lat": 56.46414607691967, "lon": -174.39864116780274, "alt_km": 696.6924618921985, "timestamp": "2025-12-03T17:47:50.994235+00:00", "meta": {"OBJECT_NAME": "FENGYUN 1C DEB", "OBJECT_ID": "1999-025AGS", "EPOCH": "2025-12-03T07:13:54.605280", "MEAN_MOTION": 14.33578539, "ECCENTRICITY": 0.0165908, "INCLINATION": 98.2245, "RA_OF_ASC_NODE": 352.5783, "ARG_OF_PERICENTER": 173.763, "MEAN_ANOMALY": 199.554, "EPHEMERIS_TYPE": 0, "CLASSIFICATION_TYPE": "U", "NORAD_CAT_ID": 30480, "ELEMENT_SET_NO": 999, "REV_AT_EPOCH": 98533, "BSTAR": 0.00032001, "MEAN_MOTION_DOT": 9.89e-06, "MEAN_MOTION_DDOT": 0}, "tle": {"line1": "1 30480U 99025AGS 25337.30132645  .00000989  00000+0  32001-3 0  9998", "line2": "2 30480  98.2245 352.5783 0165908 173.7630 199.5540 14.33578539985335"}}, "geometry": {"type": "Point", "coordinates": [-174.39864116780274, 56.46414607691967]}}, {"type": "Feature", "properties": {"norad_id": 30481, "name": "FENGYUN 1C DEB", "group": "fengyun-1c-debris", "lat": 61.779402234763026, "lon": -20.570221188292873, "alt_km": 868.3736639776398, "timestamp": "2025-12-03T17:47:50.994244+00:00", "meta": {"OBJECT_NAME": "FENGYUN 1C DEB", "OBJECT_ID": "1999-025AGT", "EPOCH": "2025-12-02T23:27:29.087136", "MEAN_MOTION": 14.38964194, "ECCENTRICITY": 0.02232275, "INCLINATION": 98.3375, "RA_OF_ASC_NODE": 354.5448, "ARG_OF_PERICENTER": 289.5004, "MEAN_ANOMALY": 135.5116, "EPHEMERIS_TYPE": 0, "CLASSIFICATION_TYPE": "U", "NORAD_CAT_ID": 30481, "ELEMENT_SET_NO": 999, "REV_AT_EPOCH": 98343, "BSTAR": 0.00079022167, "MEAN_MOTION_DOT": 3.209e-05, "MEAN_MOTION_DDOT": 0}, "tle": {"line1": "1 30481U 99025AGT 25336.97741999  .00003209  00000+0  79022-3 0  9991", "line2": "2 30481  98.3375 354.5448 0223227 289.5004 135.5116 14.38964194983430"}}, "geometry": {"type": "Point", "coordinates": [-20.570221188292873, 61.779402234763026]}}, {"type": "Feature", "properties": {"norad_id": 30486, "name": "FENGYUN 1C DEB", "group": "fengyun-1c-debris", "lat": -16.81343558040648, "lon": -173.46323124735656, "alt_km": 300.287802796277, "timestamp": "2025-12-03T17:47:50.994255+00:00", "meta": {"OBJECT_NAME": "FENGYUN 1C DEB", "OBJECT_ID": "1999-025AGY", "EPOCH": "2025-12-02T13:44:42.280512", "MEAN_MOTION": 15.87023025, "ECCENTRICITY": 0.00187191, "INCLINATION": 98.805, "RA_OF_ASC_NODE": 7.713, "ARG_OF_PERICENTER": 230.211, "MEAN_ANOMALY": 129.7509, "EPHEMERIS_TYPE": 0, "CLASSIFICATION_TYPE": "U", "NORAD_CAT_ID": 30486, "ELEMENT_SET_NO": 999, "REV_AT_EPOCH": 1592, "BSTAR": 0.0025946463, "MEAN_MOTION_DOT": 0.00673876, "MEAN_MOTION_DDOT": 0.0001747163}, "tle": {"line1": "1 30486U 99025AGY 25336.57271158  .00673876  17472-3  25946-2 0  9990", "line2": "2 30486  98.8050   7.7130 0018719 230.2110 129.7509 15.87023025 15929"}}, "geometry": {"type": "Point", "coordinates": [-173.46323124735656, -16.81343558040648]}}, {"type": "Feature", "properties": {"norad_id": 30489, "name": "FENGYUN 1C DEB", "group": "fengyun-1c-debris", "lat": -53.556870118082855, "lon": 4.717584795849191, "alt_km": 749.3356908929572, "timestamp": "2025-12-03T17:47:50.994265+00:00", "meta": {"OBJECT_NAME": "FENGYUN 1C DEB", "OBJECT_ID": "1999-025AHB", "EPOCH": "2025-12-03T12:00:47.742912", "MEAN_MOTION": 14.15801844, "ECCENTRICITY": 0.0138959, "INCLINATION": 98.4693, "RA_OF_ASC_NODE": 352.8475, "ARG_OF_PERICENTER": 291.8664, "MEAN_ANOMALY": 225.6861, "EPHEMERIS_TYPE": 0, "CLASSIFICATION_TYPE": "U", "NORAD_CAT_ID": 30489, "ELEMENT_SET_NO": 999, "REV_AT_EPOCH": 97256, "BSTAR": 0.00041112, "MEAN_MOTION_DOT": 8.45e-06, "MEAN_MOTION_DDOT": 0}, "tle": {"line1": "1 30489U 99025AHB 25337.50055258  .00000845  00000+0  41112-3 0  9997", "line2": "2 30489  98.4693 352.8475 0138959 291.8664 225.6861 14.15801844972565"}}, "geometry": {"type": "Point", "coordinates": [4.717584795849191, -53.556870118082855]}}, {"type": "Feature", "properties": {"norad_id": 30490, "name": "FENGYUN 1C DEB", "group": "fengyun-1c-debris", "lat": 74.00720808586532, "lon": -40.88201528712263, "alt_km": 458.0758017218768, "timestamp": "2025-12-03T17:47:50.994274+00:00", "meta": {"OBJECT_NAME": "FENGYUN 1C DEB", "OBJECT_ID": "1999-025AHC", "EPOCH": "2025-12-03T07:53:54.244320", "MEAN_MOTION": 15.25438611, "ECCENTRICITY": 0.0053255, "INCLINATION": 98.3345, "RA_OF_ASC_NODE": 107.8947, "ARG_OF_PERICENTER": 154.3075, "MEAN_ANOMALY": 206.0824, "EPHEMERIS_TYPE": 0, "CLASSIFICATION_TYPE": "U", "NORAD_CAT_ID": 30490, "ELEMENT_SET_NO": 999, "REV_AT_EPOCH": 99352, "BSTAR": 0.0054886, "MEAN_MOTION_DOT": 0.00147017, "MEAN_MOTION_DDOT": 0}, "tle": {"line1": "1 30490U 99025AHC 25337.32910005  .00147017  00000+0  54886-2 0  9993", "line2": "2 30490  98.3345 107.8947 0053255 154.3075 206.0824 15.25438611993527"}}, "geometry": {"type": "Point", "coordinates": [-40.88201528712263, 74.00720808586532]}}, {"type": "Feature", "properties": {"norad_id": 30492, "name": "FENGYUN 1C DEB", "group": "fengyun-1c-debris", "lat": -25.84854822104546, "lon": -3.081794531279628, "alt_km": 753.1020275744022, "timestamp": "2025-12-03T17:47:50.994285+00:00", "meta": {"OBJECT_NAME": "FENGYUN 1C DEB", "OBJECT_ID": "1999-025AHE", "EPOCH": "2025-12-02T18:45:30.746304", "MEAN_MOTION": 14.51420358, "ECCENTRICITY": 0.00957766, "INCLINATION": 102.3265, "RA_OF_ASC_NODE": 349.4353, "ARG_OF_PERICENTER": 89.7705, "MEAN_ANOMALY": 271.4449, "EPHEMERIS_TYPE": 0, "CLASSIFICATION_TYPE": "U", "NORAD_CAT_ID": 30492, "ELEMENT_SET_NO": 999, "REV_AT_EPOCH": 96750, "BSTAR": 0.0038581604, "MEAN_MOTION_DOT": 0.00016299, "MEAN_MOTION_DDOT": 0}, "tle": {"line1": "1 30492U 99025AHE 25336.78160586  .00016299  00000+0  38582-2 0  9997", "line2": "2 30492 102.3265 349.4353 0095776  89.7705 271.4449 14.51420358967501"}}, "geometry": {"type": "Point", "coordinates": [-3.081794531279628, -25.84854822104546]}}, {"type": "Feature", "properties": {"norad_id": 30493, "name": "FENGYUN 1C DEB", "group": "fengyun-1c-debris", "lat": 41.12550624243914, "lon": 161.1581295642887, "alt_km": 1040.2149997093693, "timestamp": "2025-12-03T17:47:50.994295+00:00", "meta": {"OBJECT_NAME": "FENGYUN 1C DEB", "OBJECT_ID": "1999-025AHF", "EPOCH": "2025-12-02T00:57:25.777152", "MEAN_MOTION": 13.92807961, "ECCENTRICITY": 0.01822675, "INCLINATION": 98.5711, "RA_OF_ASC_NODE": 167.1484, "ARG_OF_PERICENTER": 246.3363, "MEAN_ANOMALY": 266.961, "EPHEMERIS_TYPE": 0, "CLASSIFICATION_TYPE": "U", "NORAD_CAT_ID": 30493, "ELEMENT_SET_NO": 999, "REV_AT_EPOCH": 94946, "BSTAR": 0.0034433948, "MEAN_MOTION_DOT": 5.072e-05, "MEAN_MOTION_DDOT": 0}, "tle": {"line1": "1 30493U 99025AHF 25336.03988168  .00005072  00000+0  34434-2 0  9999", "line2": "2 30493  98.5711 167.1484 0182267 246.3363 266.9610 13.92807961949464"}}, "geometry": {"type": "Point", "coordinates": [161.1581295642887, 41.12550624243914]}}, {"type": "Feature", "properties": {"norad_id": 30494, "name": "FENGYUN 1C DEB", "group": "fengyun-1c-debris", "lat": 37.44285503781048, "lon": 6.102481467653991, "alt_km": 1083.3411220791659, "timestamp": "2025-12-03T17:47:50.994305+00:00", "meta": {"OBJECT_NAME": "FENGYUN 1C DEB", "OBJECT_ID": "1999-025AHG", "EPOCH": "2025-12-03T08:54:16.401024", "MEAN_MOTION": 13.79322889, "ECCENTRICITY": 0.0185497, "INCLINATION": 99.2834, "RA_OF_ASC_NODE": 12.9341, "ARG_OF_PERICENTER": 246.9804, "MEAN_ANOMALY": 111.1691, "EPHEMERIS_TYPE": 0, "CLASSIFICATION_TYPE": "U", "NORAD_CAT_ID": 30494, "ELEMENT_SET_NO": 999, "REV_AT_EPOCH": 94357, "BSTAR": 0.0020822, "MEAN_MOTION_DOT": 2.387e-05, "MEAN_MOTION_DDOT": 0}, "tle": {"line1": "1 30494U 99025AHG 25337.37102316  .00002387  00000+0  20822-2 0  9993", "line2": "2 30494  99.2834  12.9341 0185497 246.9804 111.1691 13.79322889943574"}}, "geometry": {"type": "Point", "coordinates": [6.102481467653991, 37.44285503781048]}}, {"type": "Feature", "properties": {"norad_id": 30495, "name": "FENGYUN 1C DEB", "group": "fengyun-1c-debris", "lat": -72.560878462278, "lon": -158.37842389375058, "alt_km": 881.0747352355847, "timestamp": "2025-12-03T17:47:50.994314+00:00", "meta": {"OBJECT_NAME": "FENGYUN 1C DEB", "OBJECT_ID": "1999-025AHH", "EPOCH": "2025-12-02T01:27:58.709952", "MEAN_MOTION": 12.9432015, "ECCENTRICITY": 0.05961511, "INCLINATION": 102.2618, "RA_OF_ASC_NODE": 63.5487, "ARG_OF_PERICENTER": 288.4982, "MEAN_ANOMALY": 65.2242, "EPHEMERIS_TYPE": 0, "CLASSIFICATION_TYPE": "U", "NORAD_CAT_ID": 30495, "ELEMENT_SET_NO": 999, "REV_AT_EPOCH": 88535, "BSTAR": 0.0028391498, "MEAN_MOTION_DOT": 1.715e-05, "MEAN_MOTION_DDOT": 0}, "tle": {"line1": "1 30495U 99025AHH 25336.06109618  .00001715  00000+0  28391-2 0  9994", "line2": "2 30495 102.2618  63.5487 0596151 288.4982  65.2242 12.94320150885351"}}, "geometry": {"type": "Point", "coordinates": [-158.37842389375058, -72.560878462278]}}, {"type": "Feature", "properties": {"norad_id": 30496, "name": "FENGYUN 1C DEB", "group": "fengyun-1c-debris", "lat": 26.459448265103443, "lon": 66.93402243702663, "alt_km": 503.1887092082634, "timestamp": "2025-12-03T17:47:50.994324+00:00", "meta": {"OBJECT_NAME": "FENGYUN 1C DEB", "OBJECT_ID": "1999-025AHJ", "EPOCH": "2025-12-03T04:15:51.086304", "MEAN_MOTION": 14.94060571, "ECCENTRICITY": 0.01302555, "INCLINATION": 98.7838, "RA_OF_ASC_NODE": 241.8902, "ARG_OF_PERICENTER": 128.0071, "MEAN_ANOMALY": 233.2991, "EPHEMERIS_TYPE": 0, "CLASSIFICATION_TYPE": "U", "NORAD_CAT_ID": 30496, "ELEMENT_SET_NO": 999, "REV_AT_EPOCH": 1001, "BSTAR": 0.00064001616, "MEAN_MOTION_DOT": 8.01e-05, "MEAN_MOTION_DDOT": 0}, "tle": {"line1": "1 30496U 99025AHJ 25337.17767461  .00008010  00000+0  64002-3 0  9999", "line2": "2 30496  98.7838 241.8902 0130255 128.0071 233.2991 14.94060571 10016"}}, "geometry": {"type": "Point", "coordinates": [66.93402243702663, 26.459448265103443]}}]}